NORAD_CAT_ID,OBJECT_NAME,OBJECT_TYPE,EPOCH,MEAN_MOTION,ECCENTRICITY,INCLINATION,RA_OF_ASC_NODE,ARG_OF_PERICENTER,MEAN_ANOMALY,BSTAR,MEAN_MOTION_DOT,MEAN_MOTION_DDOT,TLE_LINE0,TLE_LINE1,TLE_LINE2,SEMIMAJOR_AXIS,PERIOD,APOGEE,PERIGEE,DECAYED
53269.0,STARLINK-4057,PAYLOAD,2024-05-11 11:22:56,15.0892054,9.05e-05,53.2163,299.3655,71.0465,289.0625,0.0014049,0.00022191,0.0,0 STARLINK-4057,1 53269U 22086AD  24132.47426960  .00022191  00000-0  14049-2 0  9998,2 53269  53.2163 299.3655 0000905  71.0465 289.0625 15.08920540100291,6917.634,95.432,540.125,538.873,0.0
53269.0,STARLINK-4057,PAYLOAD,2024-05-11 20:55:19,15.08779849,0.0001199,53.2161,297.5804,64.5096,295.602,-0.0020068,-0.00032032,0.0,0 STARLINK-4057,1 53269U 22086AD  24132.87174916 -.00032032  00000-0 -20068-2 0  9998,2 53269  53.2161 297.5804 0001199  64.5096 295.6020 15.08779849100351,6918.064,95.441,540.759,539.1,0.0
53269.0,STARLINK-4057,PAYLOAD,2024-05-12 14:24:37,15.08787207,0.0001821,53.2175,294.3113,101.375,258.7447,0.00088276,0.00013769,0.0,0 STARLINK-4057,1 53269U 22086AD  24133.60043010  .00013769  00000-0  88276-3 0  9990,2 53269  53.2175 294.3113 0001821 101.3750 258.7447 15.08787207100645,6918.042,95.441,541.167,538.647,0.0
53269.0,STARLINK-4057,PAYLOAD,2024-05-12 17:35:23,15.08789668,0.0001196,53.2169,293.7175,87.6848,272.4281,0.001509,0.00023776,0.0,0 STARLINK-4057,1 53269U 22086AD  24133.73291663  .00023776  00000-0  15090-2 0  9995,2 53269  53.2169 293.7175 0001196  87.6848 272.4281 15.08789668100482,6918.034,95.441,540.727,539.072,0.0
53269.0,STARLINK-4057,PAYLOAD,2024-05-13 11:04:38,15.08849963,9.12e-05,53.2173,290.4448,74.1502,285.9591,0.0015842,0.00025021,0.0,0 STARLINK-4057,1 53269U 22086AD  24134.46156128  .00025021  00000-0  15842-2 0  9992,2 53269  53.2173 290.4448 0000912  74.1502 285.9591 15.08849963100597,6917.85,95.437,540.346,539.084,0.0
53269.0,STARLINK-4057,PAYLOAD,2024-05-13 17:26:11,15.08869756,9.83e-05,53.2174,289.2563,76.4761,283.6341,0.0018021,0.00028532,0.0,0 STARLINK-4057,1 53269U 22086AD  24134.72651652  .00028532  00000-0  18021-2 0  9995,2 53269  53.2174 289.2563 0000983  76.4761 283.6341 15.08869756100817,6917.789,95.436,540.334,538.974,0.0
53269.0,STARLINK-4057,PAYLOAD,2024-05-14 17:16:55,15.08898393,0.0001372,53.2165,284.7953,74.0805,286.0339,0.0010835,0.00017025,0.0,0 STARLINK-4057,1 53269U 22086AD  24135.72008775  .00017025  00000-0  10835-2 0  9998,2 53269  53.2165 284.7953 0001372  74.0805 286.0339 15.08898393100785,6917.702,95.434,540.516,538.618,0.0
53269.0,STARLINK-4057,PAYLOAD,2024-05-15 09:10:46,15.08810074,5.45e-05,53.2172,281.8189,297.4247,62.6689,-0.0033342,-0.00052917,0.0,0 STARLINK-4057,1 53269U 22086AD  24136.38248568 -.00052917  00000-0 -33342-2 0  9996,2 53269  53.2172 281.8189 0000545 297.4247  62.6689 15.08810074100881,6917.972,95.439,540.214,539.46,0.0
53269.0,STARLINK-4057,PAYLOAD,2024-05-15 13:56:54,15.08907871,1.21e-05,53.2162,280.9266,327.004,33.0945,0.00050643,7.796e-05,0.0,0 STARLINK-4057,1 53269U 22086AD  24136.58118326  .00007796  00000-0  50643-3 0  9993,2 53269  53.2162 280.9266 0000121 327.0040  33.0945 15.08907871101090,6917.673,95.433,539.622,539.454,0.0
53269.0,STARLINK-4057,PAYLOAD,2024-05-15 18:43:04,15.08868438,0.0001227,53.2158,280.0364,108.6358,251.4767,0.00027215,4.049e-05,0.0,0 STARLINK-4057,1 53269U 22086AD  24136.77990957  .00004049  00000-0  27215-3 0  9999,2 53269  53.2158 280.0364 0001227 108.6358 251.4767 15.08868438100944,6917.793,95.436,540.507,538.81,0.0
53269.0,STARLINK-4057,PAYLOAD,2024-05-16 09:01:32,15.08834462,0.0001422,53.2158,277.3611,81.3883,278.727,-0.00041471,-6.881e-05,0.0,0 STARLINK-4057,1 53269U 22086AD  24137.37607068 -.00006881  00000-0 -41471-3 0  9992,2 53269  53.2158 277.3611 0001422  81.3883 278.7270 15.08834462101037,6917.897,95.438,540.746,538.779,0.0
53269.0,STARLINK-4057,PAYLOAD,2024-05-16 15:23:04,15.08852697,0.0001175,53.216,276.1714,93.3604,266.7523,0.00057337,8.852e-05,0.0,0 STARLINK-4057,1 53269U 22086AD  24137.64102788  .00008852  00000-0  57337-3 0  9997,2 53269  53.2160 276.1714 0001175  93.3604 266.7523 15.08852697101252,6917.842,95.437,540.519,538.894,0.0
53269.0,STARLINK-4057,PAYLOAD,2024-05-17 08:52:19,15.08812989,0.0001891,53.2161,272.902,97.9053,262.2154,-0.00091874,-0.0001487,0.0,0 STARLINK-4057,1 53269U 22086AD  24138.36967313 -.00014870  00000-0 -91874-3 0  9993,2 53269  53.2161 272.9020 0001891  97.9053 262.2154 15.08812989101183,6917.963,95.439,541.136,538.52,0.0
53269.0,STARLINK-4057,PAYLOAD,2024-05-17 15:13:52,15.08807884,0.0001783,53.2154,271.7126,93.4785,266.6412,0.0019191,0.0003036,0.0,0 STARLINK-4057,1 53269U 22086AD  24138.63464112  .00030360  00000-0  19191-2 0  9993,2 53269  53.2154 271.7126 0001783  93.4785 266.6412 15.08807884101400,6917.979,95.44,541.077,538.61,0.0
53269.0,STARLINK-4057,PAYLOAD,2024-05-18 02:21:35,15.08850176,0.0001677,53.2154,269.63,92.238,267.8804,0.0026489,0.00042133,0.0,0 STARLINK-4057,1 53269U 22086AD  24139.09832327  .00042133  00000-0  26489-2 0  9990,2 53269  53.2154 269.6300 0001677  92.2380 267.8804 15.08850176101297,6917.849,95.437,540.874,538.554,0.0
53269.0,STARLINK-4057,PAYLOAD,2024-05-18 11:53:54,15.08847485,0.0002401,53.2121,267.8436,104.5308,255.5951,0.0011141,0.00017491,0.0,0 STARLINK-4057,1 53269U 22086AD  24139.49576463  .00017491  00000-0  11141-2 0  9998,2 53269  53.2121 267.8436 0002401 104.5308 255.5951 15.08847485101357,6917.858,95.437,541.383,538.062,0.0
53269.0,STARLINK-4057,PAYLOAD,2024-05-18 15:04:40,15.08851882,0.0002096,53.2135,267.249,107.7266,252.3955,0.0012282,0.00019319,0.0,0 STARLINK-4057,1 53269U 22086AD  24139.62824300  .00019319  00000-0  12282-2 0  9997,2 53269  53.2135 267.2490 0002096 107.7266 252.3955 15.08851882101551,6917.844,95.437,541.159,538.259,0.0
53269.0,STARLINK-4057,PAYLOAD,2024-05-19 13:20:03,15.08858377,0.0001643,53.2145,263.0875,84.39,275.7279,0.00075709,0.00011788,0.0,0 STARLINK-4057,1 53269U 22086AD  24140.55560038  .00011788  00000-0  75709-3 0  9992,2 53269  53.2145 263.0875 0001643  84.3900 275.7279 15.08858377101694,6917.824,95.436,540.826,538.553,0.0
53269.0,STARLINK-4057,PAYLOAD,2024-05-20 13:10:51,15.0882209,0.0001196,53.2158,258.6264,92.359,267.7539,0.00067008,0.00010387,0.0,0 STARLINK-4057,1 53269U 22086AD  24141.54920380  .00010387  00000-0  67008-3 0  9999,2 53269  53.2158 258.6264 0001196  92.3590 267.7539 15.08822090101667,6917.935,95.439,540.628,538.973,0.0
53269.0,STARLINK-4057,PAYLOAD,2024-05-20 14:46:14,15.08823634,0.0001347,53.217,258.3295,90.3579,269.7568,0.00072907,0.00011329,0.0,0 STARLINK-4057,1 53269U 22086AD  24141.61544475  .00011329  00000-0  72907-3 0  9995,2 53269  53.2170 258.3295 0001347  90.3579 269.7568 15.08823634101855,6917.93,95.439,540.727,538.864,0.0
53269.0,STARLINK-4057,PAYLOAD,2024-05-21 13:01:38,15.08837462,0.0001387,53.2178,254.1652,102.228,257.8867,0.0007269,0.00011299,0.0,0 STARLINK-4057,1 53269U 22086AD  24142.54281141  .00011299  00000-0  72690-3 0  9991,2 53269  53.2178 254.1652 0001387 102.2280 257.8867 15.08837462101999,6917.888,95.438,540.713,538.794,0.0
53269.0,STARLINK-4057,PAYLOAD,2024-05-22 11:17:02,15.08851808,0.0001329,53.2173,250.0024,100.6033,259.5109,0.00055133,8.5e-05,0.0,0 STARLINK-4057,1 53269U 22086AD  24143.47016836  .00008500  00000-0  55133-3 0  9995,2 53269  53.2173 250.0024 0001329 100.6033 259.5109 15.08851808101950,6917.844,95.437,540.629,538.79,0.0
53269.0,STARLINK-4057,PAYLOAD,2024-05-23 12:43:12,15.08845813,0.0001327,53.2163,245.2454,56.1408,303.971,0.00046917,7.188e-05,0.0,0 STARLINK-4057,1 53269U 22086AD  24144.53001038  .00007188  00000-0  46917-3 0  9992,2 53269  53.2163 245.2454 0001327  56.1408 303.9710 15.08845813102111,6917.863,95.437,540.646,538.81,0.0
53269.0,STARLINK-4057,PAYLOAD,2024-05-23 14:18:35,15.08843057,0.0001206,53.2165,244.9458,94.6698,265.4432,0.00014278,1.985e-05,0.0,0 STARLINK-4057,1 53269U 22086AD  24144.59624817  .00001985  00000-0  14278-3 0  9998,2 53269  53.2165 244.9458 0001206  94.6698 265.4432 15.08843057102309,6917.871,95.437,540.57,538.902,0.0
53269.0,STARLINK-4057,PAYLOAD,2024-05-24 12:33:59,15.08848097,0.0001223,53.2152,240.7865,91.991,268.1222,0.0002433,3.587e-05,0.0,0 STARLINK-4057,1 53269U 22086AD  24145.52360652  .00003587  00000-0  24330-3 0  9996,2 53269  53.2152 240.7865 0001223  91.9910 268.1222 15.08848097102268,6917.856,95.437,540.567,538.875,0.0
53269.0,STARLINK-4057,PAYLOAD,2024-05-24 14:09:22,15.08859558,0.0001288,53.215,240.4828,136.8056,223.3037,0.00046397,7.108e-05,0.0,0 STARLINK-4057,1 53269U 22086AD  24145.58984012  .00007108  00000-0  46397-3 0  9994,2 53269  53.2150 240.4828 0001288 136.8056 223.3037 15.08859558102455,6917.821,95.436,540.577,538.795,0.0
53269.0,STARLINK-4057,PAYLOAD,2024-05-25 12:24:45,15.08846463,0.0001162,53.2144,236.3258,113.8618,246.2496,-1.3333e-05,-5e-06,0.0,0 STARLINK-4057,1 53269U 22086AD  24146.51719616 -.00000500  00000-0 -13333-4 0  9990,2 53269  53.2144 236.3258 0001162 113.8618 246.2496 15.08846463102419,6917.861,95.437,540.529,538.922,0.0
53269.0,STARLINK-4057,PAYLOAD,2024-05-25 23:32:27,15.08857294,8.16e-05,53.2139,234.2451,93.0144,267.0941,0.00025677,3.803e-05,0.0,0 STARLINK-4057,1 53269U 22086AD  24146.98086980  .00003803  00000-0  25677-3 0  9992,2 53269  53.2139 234.2451 0000816  93.0144 267.0941 15.08857294102480,6917.828,95.436,540.257,539.128,0.0
53269.0,STARLINK-4057,PAYLOAD,2024-05-26 12:15:33,15.0882784,0.0001127,53.2156,231.8676,90.6484,269.4637,-0.00028744,-4.858e-05,0.0,0 STARLINK-4057,1 53269U 22086AD  24147.51080404 -.00004858  00000-0 -28744-3 0  9998,2 53269  53.2156 231.8676 0001127  90.6484 269.4637 15.08827840102568,6917.918,95.438,540.562,539.003,0.0
53269.0,STARLINK-4057,PAYLOAD,2024-05-27 12:06:20,15.08837757,0.0001165,53.2164,227.4015,87.2617,272.8509,0.00024739,3.651e-05,0.0,0 STARLINK-4057,1 53269U 22086AD  24148.50440832  .00003651  00000-0  24739-3 0  9991,2 53269  53.2164 227.4015 0001165  87.2617 272.8509 15.08837757102718,6917.887,95.438,540.558,538.946,0.0
